COMMENT,ORIGINATOR,NORAD_CAT_ID,OBJECT_NAME,OBJECT_TYPE,CLASSIFICATION_TYPE,INTLDES,EPOCH,EPOCH_MICROSECONDS,MEAN_MOTION,ECCENTRICITY,INCLINATION,RA_OF_ASC_NODE,ARG_OF_PERICENTER,MEAN_ANOMALY,EPHEMERIS_TYPE,ELEMENT_SET_NO,REV_AT_EPOCH,BSTAR,MEAN_MOTION_DOT,MEAN_MOTION_DDOT,FILE,TLE_LINE0,TLE_LINE1,TLE_LINE2,OBJECT_ID,OBJECT_NUMBER,SEMIMAJOR_AXIS,PERIOD,APOGEE,PERIGEE
"GENERATED VIA SPACETRACK.ORG API","JSPOC","1778","A-1 (ASTERIX)","PAYLOAD","U","65096A","2016-01-14 20:17:45","695328","13.46630859","0.0752109","34.2538","227.3436","38.6741","326.5398","0","999","45071","7.7996e-05","2.64e-06","0","1980307","0 A-1 (ASTERIX)","1 01778U 65096A   16014.84566777  .00000264  00000-0  77996-4 0  9995","2 01778  34.2538 227.3436 0752109  38.6741 326.5398 13.46630859450718","1965-096A","1778","7462.817","106.933","1645.967","523.396"
"GENERATED VIA SPACETRACK.ORG API","JSPOC","33316","RAPIDEYE 4","PAYLOAD","U","08040E","2016-01-14 20:17:52","951200","14.79965989","0.0012518","97.8458","99.372","128.7902","231.4428","0","999","39850","4.2679e-05","2.72e-06","0","1980368","0 RAPIDEYE 4","1 33316U 08040E   16014.84575175  .00000272  00000-0  42679-4 0  9995","2 33316  97.8458  99.3720 0012518 128.7902 231.4428 14.79965989398501","2008-040E","33316","7007.568","97.299","638.205","620.661"
"GENERATED VIA SPACETRACK.ORG API","JSPOC","17587","COSMOS 1832","PAYLOAD","U","87026F","2016-01-14 20:17:57","381792","12.64240727","0.000852","82.5697","122.6067","187.5238","267.4622","0","999","33096","0.00015399","3.9e-07","0","1980287","0 COSMOS 1832","1 17587U 87026F   16014.84580303  .00000039  00000-0  15399-3 0  9996","2 17587  82.5697 122.6067 0008520 187.5238 267.4622 12.64240727330965","1987-026F","17587","7783.626","113.902","1412.123","1398.859"
"GENERATED VIA SPACETRACK.ORG API","JSPOC","21853","COSMOS 2177 (GLONASS)","PAYLOAD","U","92005A","2016-01-14 20:18:00","864576","2.13101763","0.0009671","64.0396","201.0607","185.3442","185.7411","0","999","18650","0","9.9e-07","0","1980305","0 COSMOS 2177 (GLONASS)","1 21853U 92005A   16014.84584334  .00000099  00000-0  00000+0 0  9993","2 21853  64.0396 201.0607 0009671 185.3442 185.7411  2.13101763186506","1992-005A","21853","25508.043","675.733","19154.577","19105.239"
"GENERATED VIA SPACETRACK.ORG API","JSPOC","22828","KITSAT B","PAYLOAD","U","93061F","2016-01-14 20:18:08","451360","14.30562592","0.0010223","98.7242","329.5022","16.4985","343.6528","0","999","13168","4.778e-05","8e-07","0","1980351","0 KITSAT B","1 22828U 93061F   16014.84593115  .00000080  00000-0  47780-4 0  9997","2 22828  98.7242 329.5022 0010223  16.4985 343.6528 14.30562592131687","1993-061F","22828","7167.987","100.659","797.180","782.525"
"GENERATED VIA SPACETRACK.ORG API","JSPOC","32500","WINDS (KIZUNA)","PAYLOAD","U","08007A","2016-01-14 20:18:13","854816","1.00271944","0.0002561","0.0856","265.8721","41.338","254.0879","0","999","2886","0","-2.64e-06","0","1980369","0 WINDS (KIZUNA)","1 32500U 08007A   16014.84599369 -.00000264  00000-0  00000+0 0  9992","2 32500   0.0856 265.8721 0002561  41.3380 254.0879  1.00271944 28862","2008-007A","32500","42164.687","1436.094","35797.350","35775.754"
"GENERATED VIA SPACETRACK.ORG API","JSPOC","28890","BEIJING 1 (TSINGHUA)","PAYLOAD","U","05043A","2016-01-14 20:18:15","378048","14.61077702","0.0015282","97.8212","191.5729","354.1071","5.996","0","999","54458","3.4023e-05","1.24e-06","0","1980350","0 BEIJING 1 (TSINGHUA)","1 28890U 05043A   16014.84601132  .00000124  00000-0  34023-4 0  9999","2 28890  97.8212 191.5729 0015282 354.1071   5.9960 14.61077702544581","2005-043A","28890","7067.833","98.557","700.499","678.897"
"GENERATED VIA SPACETRACK.ORG API","JSPOC","37854","AUBIESAT-1","PAYLOAD","U","11061E","2016-01-14 20:18:26","459712","15.00725065","0.0177363","101.7016","339.7288","168.8621","191.6596","0","999","22893","0.00024555","4.207e-05","0","1980379","0 AUBIESAT-1","1 37854U 11061E   16014.84613958  .00004207  00000-0  24555-3 0  9999","2 37854 101.7016 339.7288 0177363 168.8621 191.6596 15.00725065228936","2011-061E","37854","6942.796","95.953","687.800","441.521"
"GENERATED VIA SPACETRACK.ORG API","JSPOC","32954","COSMOS 2437","PAYLOAD","U","08025B","2016-01-14 20:18:28","23552","12.42682994","0.0020223","82.4979","203.4191","352.0683","8.0078","0","999","34681","2.271e-05","1.3e-07","0","1980360","0 COSMOS 2437","1 32954U 08025B   16014.84615768  .00000013  00000-0  22710-4 0  9995","2 32954  82.4979 203.4191 0020223 352.0683   8.0078 12.42682994346812","2008-025B","32954","7873.387","115.878","1511.174","1479.329"
"GENERATED VIA SPACETRACK.ORG API","JSPOC","17239","COSMOS 1808","PAYLOAD","U","86100A","2016-01-14 20:18:37","23840","13.7195097","0.0032196","82.9357","100.8224","346.7557","145.1407","0","999","45573","4.0813e-05","5.2e-07","0","1980352","0 COSMOS 1808","1 17239U 86100A   16014.84626185  .00000052  00000-0  40813-4 0  9996","2 17239  82.9357 100.8224 0032196 346.7557 145.1407 13.71950970455731","1986-100A","17239","7370.712","104.960","1016.307","968.846"
"GENERATED VIA SPACETRACK.ORG API","JSPOC","40275","YAOGAN 22","PAYLOAD","U","14063A","2016-01-14 20:18:56","320416","13.15304771","0.0006502","100.3666","132.1631","172.7794","187.3417","0","999","5936","0","-4.4e-07","0","1980355","0 YAOGAN 22","1 40275U 14063A   16014.84648519 -.00000044  00000-0  00000+0 0  9997","2 40275 100.3666 132.1631 0006502 172.7794 187.3417 13.15304771 59365","2014-063A","40275","7580.844","109.480","1207.638","1197.780"
"GENERATED VIA SPACETRACK.ORG API","JSPOC","26626","SIRIUS 3","PAYLOAD","U","00077A","2016-01-14 20:19:30","632448","1.00273115","0.2667485","64.4414","354.0794","268.918","60.7198","0","999","5538","0","-1.08e-06","0","1980707","0 SIRIUS 3","1 26626U 00077A   16014.84688232 -.00000108 +00000-0 +00000-0 0  9999","2 26626 064.4414 354.0794 2667485 268.9180 060.7198 01.00273115055383","2000-077A","26626","42164.359","1436.077","47033.503","24538.944"
"GENERATED VIA SPACETRACK.ORG API","JSPOC","39153","CUBEBUG 1","PAYLOAD","U","13018D","2016-01-14 20:19:39","129888","14.79664719","0.0015875","98.0061","103.5427","290.4075","69.5432","0","999","14677","0.00012151","8.6e-06","0","1980377","0 CUBEBUG 1","1 39153U 13018D   16014.84698067  .00000860  00000-0  12151-3 0  9991","2 39153  98.0061 103.5427 0015875 290.4075  69.5432 14.79664719146770","2013-018D","39153","7008.519","97.319","641.510","619.258"
"GENERATED VIA SPACETRACK.ORG API","JSPOC","40716","DMC 3-FM2","PAYLOAD","U","15032B","2016-01-14 20:19:42","49344","14.73685772","0.0014284","98.0318","267.373","13.4712","346.7004","0","999","2771","3.9793e-05","2.09e-06","0","1980275","0 DMC 3-FM2","1 40716U 15032B   16014.84701446  .00000209  00000-0  39793-4 0  9991","2 40716  98.0318 267.3730 0014284  13.4712 346.7004 14.73685772 27715","2015-032B","40716","7027.463","97.714","659.366","639.290"
"GENERATED VIA SPACETRACK.ORG API","JSPOC","9931","ESA/GOES","PAYLOAD","U","77029A","2016-01-14 20:20:16","236960","1.96180377","0.6609378","27.6751","24.4358","229.0277","51.7204","0","999","27718","0","-5.96e-06","0","1980457","0 ESA/GOES","1 09931U 77029A   16014.84741015 -.00000596  00000-0  00000+0 0  9999","2 09931  27.6751  24.4358 6609378 229.0277  51.7204  1.96180377277182","1977-029A","9931","26954.511","734.018","38391.631","2761.120"
"GENERATED VIA SPACETRACK.ORG API","JSPOC","9931","ESA/GOES","PAYLOAD","U","77029A","2016-01-14 20:20:16","112544","1.96180414","0.660938","27.6751","24.4358","229.0277","51.7202","0","999","27715","0","-5.96e-06","0","1980707","0 ESA/GOES","1  9931U 77029A   16014.84740871 -.00000596 +00000-0 +00000-0 0  9999","2  9931 027.6751 024.4358 6609380 229.0277 051.7202 01.96180414277152","1977-029A","9931","26954.508","734.018","38391.631","2761.114"
"GENERATED VIA SPACETRACK.ORG API","JSPOC","5707","SL-8 R/B","ROCKET BODY","U","71114B","2016-01-14 20:20:23","15040","14.38663774","0.0024397","74.0291","324.5239","157.9579","202.263","0","999","30810","5.1226e-05","1.31e-06","0","1980319","0 SL-8 R/B","1 05707U 71114B   16014.84748860  .00000131  00000-0  51226-4 0  9995","2 05707  74.0291 324.5239 0024397 157.9579 202.2630 14.38663774308106","1971-114B","5707","7141.053","100.092","780.340","745.496"
"GENERATED VIA SPACETRACK.ORG API","JSPOC","37188","GLOBALSTAR M079","PAYLOAD","U","10054A","2016-01-14 20:20:36","100320","12.62269517","0.0001038","52.0016","175.7282","108.5663","58.0096","0","999","24253","-2.2744e-07","-1.04e-06","0","1980371","0 GLOBALSTAR M079","1 37188U 10054A   16014.84764005 -.00000104  00000-0 -22744-6 0  9995","2 37188  52.0016 175.7282 0001038 108.5663  58.0096 12.62269517242531","2010-054A","37188","7791.727","114.080","1414.401","1412.784"
"GENERATED VIA SPACETRACK.ORG API","JSPOC","18363","SCOUT G-1 R/B","ROCKET BODY","U","87080C","2016-01-14 20:20:41","604864","13.43728394","0.0105507","90.3472","318.1452","172.9155","199.2221","0","999","38887","9.4851e-05","6.5e-07","0","1980355","0 SCOUT G-1 R/B","1 18363U 87080C   16014.84770376  .00000065  00000-0  94851-4 0  9990","2 18363  90.3472 318.1452 0105507 172.9155 199.2221 13.43728394388874","1987-080C","18363","7473.559","107.164","1174.276","1016.573"
"GENERATED VIA SPACETRACK.ORG API","JSPOC","40928","TIANWANG 1A (TW-1A)","PAYLOAD","U","15051D","2016-01-14 20:21:01","655712","15.31523055","0.0013147","97.2898","53.4733","257.5295","188.8738","0","999","1708","0.00022565","6.809e-05","0","1980366","0 TIANWANG 1A (TW-1A)","1 40928U 15051D   16014.84793583  .00006809  00000-0  22565-3 0  9990","2 40928  97.2898  53.4733 0013147 257.5295 188.8738 15.31523055 17083","2015-051D","40928","6849.404","94.024","480.274","462.264"
